ONEWEB-0603             
1 54667U 22166AB  26065.28449278 -.00000131  00000+0 -34843-3 0  9999
2 54667  87.9175 264.4705 0001377  89.3389 270.7902 13.21825477157889
ONEWEB-0604             
1 54668U 22166AC  26065.04588549 -.00000055  00000+0 -16422-3 0  9997
2 54668  87.9176 264.5323 0001637  92.6332 267.4990 13.21826860157812
ONEWEB-0605             
1 54669U 22166AD  26065.26639412  .00000092  00000+0  19212-3 0  9997
2 54669  87.9168 264.5132 0001382  71.2367 288.8916 13.21823955157918
ONEWEB-0606             
1 54670U 22166AE  26065.28780047  .00000068  00000+0  13199-3 0  9993
2 54670  87.9166 264.5212 0001736  89.9032 270.2301 13.21826255157970
ONEWEB-0607             
1 54671U 22166AF  26065.25489667  .00000038  00000+0  60389-4 0  9996
2 54671  87.9169 264.4915 0001427  89.1935 270.9363 13.21826272157945
ONEWEB-0608             
1 54672U 22166AG  26064.58019226  .00000086  00000+0  17562-3 0  9999
2 54672  87.9181 264.6207 0001174  73.8604 286.2659 13.21827435157869
ONEWEB-0610             
1 54673U 22166AH  26065.24170504  .00000091  00000+0  18766-3 0  9994
2 54673  87.9163 264.5128 0000978  78.2681 281.8563 13.21827053157856
ONEWEB-0611             
1 54674U 22166AJ  26065.08374944  .00000053  00000+0  97656-4 0  9995
2 54674  87.9163 264.5412 0001693  95.7851 264.3476 13.21827960157824
ONEWEB-0612             
1 54675U 22166AK  26065.09692115 -.00000056  00000+0 -16649-3 0  9997
2 54675  87.9173 264.5221 0001478  89.1896 270.9407 13.21826550157811
ONEWEB-0615             
1 54676U 22166AL  26065.30425825  .00000065  00000+0  12478-3 0  9998
2 54676  87.9163 264.5046 0001546  93.0644 267.0667 13.21826379157855
ONEWEB-0655             
1 54677U 22166AM  26065.05248634  .00000076  00000+0  15282-3 0  9990
2 54677  87.9163 264.5570 0001390  99.6032 260.5259 13.21826145157810
ONEWEB-0659             
1 54678U 22166AN  26065.06893777 -.00000362  00000+0 -90799-3 0  9992
2 54678  87.9172 264.5544 0001424  88.3447 271.7851 13.21821860157906
ONEWEB-0685             
1 54679U 22166AP  26065.06930343  .00000035  00000+0  53332-4 0  9992
2 54679  87.9160 264.5498 0001357  91.7533 268.3756 13.21812373157793
ONEWEB-0712             
1 54680U 22166AQ  26065.00813852 -.00000005  00000+0 -46143-4 0  9994
2 54680  87.9005 249.2970 0001436 114.6183 245.5097 13.16593858158482
ONEWEB-0714             
1 54681U 22166AR  26065.30259973 -.00000028  00000+0 -98309-4 0  9992
2 54681  87.9163 264.4981 0001428  92.5580 267.5718 13.21823822157942
ONEWEB-0532             
1 55140U 23004A   26065.29171249  .00000010  00000+0 -80836-5 0  9999
2 55140  87.9155  26.2957 0001944  70.0288 290.1052 13.17649830154030
