[{"OBJECT_NAME":"ONEWEB-0603","OBJECT_ID":"2022-166AB","EPOCH":"2026-03-06T06:49:40.176192","MEAN_MOTION":13.21825477,"ECCENTRICITY":0.00013773,"INCLINATION":87.9175,"RA_OF_ASC_NODE":264.4705,"ARG_OF_PERICENTER":89.3389,"MEAN_ANOMALY":270.7902,"EPHEMERIS_TYPE":0,"CLASSIFICATION_TYPE":"U","NORAD_CAT_ID":54667,"ELEMENT_SET_NO":999,"REV_AT_EPOCH":15788,"BSTAR":-0.00034843229,"MEAN_MOTION_DOT":-1.31e-6,"MEAN_MOTION_DDOT":0},{"OBJECT_NAME":"ONEWEB-0604","OBJECT_ID":"2022-166AC","EPOCH":"2026-03-06T01:06:04.506336","MEAN_MOTION":13.2182686,"ECCENTRICITY":0.00016374,"INCLINATION":87.9176,"RA_OF_ASC_NODE":264.5323,"ARG_OF_PERICENTER":92.6332,"MEAN_ANOMALY":267.499,"EPHEMERIS_TYPE":0,"CLASSIFICATION_TYPE":"U","NORAD_CAT_ID":54668,"ELEMENT_SET_NO":999,"REV_AT_EPOCH":15781,"BSTAR":-0.00016422233,"MEAN_MOTION_DOT":-5.5e-7,"MEAN_MOTION_DDOT":0},{"OBJECT_NAME":"ONEWEB-0605","OBJECT_ID":"2022-166AD","EPOCH":"2026-03-06T06:23:36.451968","MEAN_MOTION":13.21823955,"ECCENTRICITY":0.0001382,"INCLINATION":87.9168,"RA_OF_ASC_NODE":264.5132,"ARG_OF_PERICENTER":71.2367,"MEAN_ANOMALY":288.8916,"EPHEMERIS_TYPE":0,"CLASSIFICATION_TYPE":"U","NORAD_CAT_ID":54669,"ELEMENT_SET_NO":999,"REV_AT_EPOCH":15791,"BSTAR":0.00019211551,"MEAN_MOTION_DOT":9.2e-7,"MEAN_MOTION_DDOT":0},{"OBJECT_NAME":"ONEWEB-0606","OBJECT_ID":"2022-166AE","EPOCH":"2026-03-06T06:54:25.960608","MEAN_MOTION":13.21826255,"ECCENTRICITY":0.00017365,"INCLINATION":87.9166,"RA_OF_ASC_NODE":264.5212,"ARG_OF_PERICENTER":89.9032,"MEAN_ANOMALY":270.2301,"EPHEMERIS_TYPE":0,"CLASSIFICATION_TYPE":"U","NORAD_CAT_ID":54670,"ELEMENT_SET_NO":999,"REV_AT_EPOCH":15797,"BSTAR":0.00013199267,"MEAN_MOTION_DOT":6.8e-7,"MEAN_MOTION_DDOT":0},{"OBJECT_NAME":"ONEWEB-0607","OBJECT_ID":"2022-166AF","EPOCH":"2026-03-06T06:07:03.072288","MEAN_MOTION":13.21826272,"ECCENTRICITY":0.00014279,"INCLINATION":87.9169,"RA_OF_ASC_NODE":264.4915,"ARG_OF_PERICENTER":89.1935,"MEAN_ANOMALY":270.9363,"EPHEMERIS_TYPE":0,"CLASSIFICATION_TYPE":"U","NORAD_CAT_ID":54671,"ELEMENT_SET_NO":999,"REV_AT_EPOCH":15794,"BSTAR":6.0389101e-5,"MEAN_MOTION_DOT":3.8e-7,"MEAN_MOTION_DDOT":0},{"OBJECT_NAME":"ONEWEB-0608","OBJECT_ID":"2022-166AG","EPOCH":"2026-03-05T13:55:28.611264","MEAN_MOTION":13.21827435,"ECCENTRICITY":0.0001174,"INCLINATION":87.9181,"RA_OF_ASC_NODE":264.6207,"ARG_OF_PERICENTER":73.8604,"MEAN_ANOMALY":286.2659,"EPHEMERIS_TYPE":0,"CLASSIFICATION_TYPE":"U","NORAD_CAT_ID":54672,"ELEMENT_SET_NO":999,"REV_AT_EPOCH":15786,"BSTAR":0.00017562,"MEAN_MOTION_DOT":8.6e-7,"MEAN_MOTION_DDOT":0},{"OBJECT_NAME":"ONEWEB-0610","OBJECT_ID":"2022-166AH","EPOCH":"2026-03-06T05:48:03.315456","MEAN_MOTION":13.21827053,"ECCENTRICITY":9.787e-5,"INCLINATION":87.9163,"RA_OF_ASC_NODE":264.5128,"ARG_OF_PERICENTER":78.2681,"MEAN_ANOMALY":281.8563,"EPHEMERIS_TYPE":0,"CLASSIFICATION_TYPE":"U","NORAD_CAT_ID":54673,"ELEMENT_SET_NO":999,"REV_AT_EPOCH":15785,"BSTAR":0.00018766079,"MEAN_MOTION_DOT":9.1e-7,"MEAN_MOTION_DDOT":0},{"OBJECT_NAME":"ONEWEB-0611","OBJECT_ID":"2022-166AJ","EPOCH":"2026-03-06T02:00:35.951616","MEAN_MOTION":13.2182796,"ECCENTRICITY":0.00016931,"INCLINATION":87.9163,"RA_OF_ASC_NODE":264.5412,"ARG_OF_PERICENTER":95.7851,"MEAN_ANOMALY":264.3476,"EPHEMERIS_TYPE":0,"CLASSIFICATION_TYPE":"U","NORAD_CAT_ID":54674,"ELEMENT_SET_NO":999,"REV_AT_EPOCH":15782,"BSTAR":9.7655831e-5,"MEAN_MOTION_DOT":5.3e-7,"MEAN_MOTION_DDOT":0},{"OBJECT_NAME":"ONEWEB-0612","OBJECT_ID":"2022-166AK","EPOCH":"2026-03-06T02:19:33.987360","MEAN_MOTION":13.2182655,"ECCENTRICITY":0.00014782,"INCLINATION":87.9173,"RA_OF_ASC_NODE":264.5221,"ARG_OF_PERICENTER":89.1896,"MEAN_ANOMALY":270.9407,"EPHEMERIS_TYPE":0,"CLASSIFICATION_TYPE":"U","NORAD_CAT_ID":54675,"ELEMENT_SET_NO":999,"REV_AT_EPOCH":15781,"BSTAR":-0.00016649076,"MEAN_MOTION_DOT":-5.6e-7,"MEAN_MOTION_DDOT":0},{"OBJECT_NAME":"ONEWEB-0615","OBJECT_ID":"2022-166AL","EPOCH":"2026-03-06T07:18:07.912800","MEAN_MOTION":13.21826379,"ECCENTRICITY":0.00015462,"INCLINATION":87.9163,"RA_OF_ASC_NODE":264.5046,"ARG_OF_PERICENTER":93.0644,"MEAN_ANOMALY":267.0667,"EPHEMERIS_TYPE":0,"CLASSIFICATION_TYPE":"U","NORAD_CAT_ID":54676,"ELEMENT_SET_NO":999,"REV_AT_EPOCH":15785,"BSTAR":0.0001247798,"MEAN_MOTION_DOT":6.5e-7,"MEAN_MOTION_DDOT":0},{"OBJECT_NAME":"ONEWEB-0655","OBJECT_ID":"2022-166AM","EPOCH":"2026-03-06T01:15:34.819776","MEAN_MOTION":13.21826145,"ECCENTRICITY":0.00013904,"INCLINATION":87.9163,"RA_OF_ASC_NODE":264.557,"ARG_OF_PERICENTER":99.6032,"MEAN_ANOMALY":260.5259,"EPHEMERIS_TYPE":0,"CLASSIFICATION_TYPE":"U","NORAD_CAT_ID":54677,"ELEMENT_SET_NO":999,"REV_AT_EPOCH":15781,"BSTAR":0.00015281876,"MEAN_MOTION_DOT":7.6e-7,"MEAN_MOTION_DDOT":0},{"OBJECT_NAME":"ONEWEB-0659","OBJECT_ID":"2022-166AN","EPOCH":"2026-03-06T01:39:16.223328","MEAN_MOTION":13.2182186,"ECCENTRICITY":0.00014245,"INCLINATION":87.9172,"RA_OF_ASC_NODE":264.5544,"ARG_OF_PERICENTER":88.3447,"MEAN_ANOMALY":271.7851,"EPHEMERIS_TYPE":0,"CLASSIFICATION_TYPE":"U","NORAD_CAT_ID":54678,"ELEMENT_SET_NO":999,"REV_AT_EPOCH":15790,"BSTAR":-0.00090798953,"MEAN_MOTION_DOT":-3.62e-6,"MEAN_MOTION_DDOT":0},{"OBJECT_NAME":"ONEWEB-0685","OBJECT_ID":"2022-166AP","EPOCH":"2026-03-06T01:39:47.816352","MEAN_MOTION":13.21812373,"ECCENTRICITY":0.00013576,"INCLINATION":87.916,"RA_OF_ASC_NODE":264.5498,"ARG_OF_PERICENTER":91.7533,"MEAN_ANOMALY":268.3756,"EPHEMERIS_TYPE":0,"CLASSIFICATION_TYPE":"U","NORAD_CAT_ID":54679,"ELEMENT_SET_NO":999,"REV_AT_EPOCH":15779,"BSTAR":5.3331969e-5,"MEAN_MOTION_DOT":3.5e-7,"MEAN_MOTION_DDOT":0},{"OBJECT_NAME":"ONEWEB-0712","OBJECT_ID":"2022-166AQ","EPOCH":"2026-03-06T00:11:43.168128","MEAN_MOTION":13.16593858,"ECCENTRICITY":0.00014369,"INCLINATION":87.9005,"RA_OF_ASC_NODE":249.297,"ARG_OF_PERICENTER":114.6183,"MEAN_ANOMALY":245.5097,"EPHEMERIS_TYPE":0,"CLASSIFICATION_TYPE":"U","NORAD_CAT_ID":54680,"ELEMENT_SET_NO":999,"REV_AT_EPOCH":15848,"BSTAR":-4.6142995e-5,"MEAN_MOTION_DOT":-5.0e-8,"MEAN_MOTION_DDOT":0},{"OBJECT_NAME":"ONEWEB-0714","OBJECT_ID":"2022-166AR","EPOCH":"2026-03-06T07:15:44.616672","MEAN_MOTION":13.21823822,"ECCENTRICITY":0.00014286,"INCLINATION":87.9163,"RA_OF_ASC_NODE":264.4981,"ARG_OF_PERICENTER":92.558,"MEAN_ANOMALY":267.5718,"EPHEMERIS_TYPE":0,"CLASSIFICATION_TYPE":"U","NORAD_CAT_ID":54681,"ELEMENT_SET_NO":999,"REV_AT_EPOCH":15794,"BSTAR":-9.8309478e-5,"MEAN_MOTION_DOT":-2.8e-7,"MEAN_MOTION_DDOT":0},{"OBJECT_NAME":"ONEWEB-0532","OBJECT_ID":"2023-004A","EPOCH":"2026-03-06T07:00:03.959136","MEAN_MOTION":13.1764983,"ECCENTRICITY":0.0001944,"INCLINATION":87.9155,"RA_OF_ASC_NODE":26.2957,"ARG_OF_PERICENTER":70.0288,"MEAN_ANOMALY":290.1052,"EPHEMERIS_TYPE":0,"CLASSIFICATION_TYPE":"U","NORAD_CAT_ID":55140,"ELEMENT_SET_NO":999,"REV_AT_EPOCH":15403,"BSTAR":-8.083614e-6,"MEAN_MOTION_DOT":1.0e-7,"MEAN_MOTION_DDOT":0}]
